IRIDIUM 171             
1 43929U 19002H   24171.40591295  .00000287  00000+0  95302-4 0  9998
2 43929  86.3969 297.9405 0002405  92.0828 268.0643 14.34219885284644
IRIDIUM 177             
1 56727U 23068T   24171.45607588  .00001550  00000+0  20056-3 0  9990
2 56727  86.1969 314.2823 0002713  89.7408 270.4124 14.80224909 58710
IRIDIUM 174             
1 56728U 23068U   24171.45064360  .00001518  00000+0  19632-3 0  9998
2 56728  86.1975 314.3892 0002202  96.9359 263.2113 14.80225478 58713
IRIDIUM 178             
1 56729U 23068V   24171.51286913  .00001694  00000+0  21939-3 0  9994
2 56729  86.5778 331.9355 0001873  89.7350 270.4086 14.80245786 58726
IRIDIUM 179             
1 56730U 23068W   24171.50743292  .00001646  00000+0  21324-3 0  9998
2 56730  86.6788 336.1014 0002035  93.0899 267.0555 14.80225845 58723
